{
  "norad_id": 58087,
  "name": "STARLINK-30557",
  "history": [
    {
      "epoch": "2026-04-12T16:31:52.402944Z",
      "apogee_km": 483.99920771406323,
      "perigee_km": 482.0920733872954,
      "latitude_deg": -2.5449873662364506e-05,
      "longitude_deg": 160.57748991909452,
      "height_km": 482.8143861574093,
      "semi_major_axis_km": 6861.182640550679,
      "eccentricity": 0.00013898,
      "inclination_deg": 43.0019,
      "raan_deg": 249.4362,
      "arg_perigee_deg": 270.4905,
      "mean_anomaly_deg": 89.5787,
      "mean_motion_rev_day": 15.27581154
    },
    {
      "epoch": "2026-04-14T17:10:43.753152Z",
      "apogee_km": 483.8716678362716,
      "perigee_km": 482.2537969393752,
      "latitude_deg": -2.300243963158913e-06,
      "longitude_deg": 137.41797108717523,
      "height_km": 482.99385644954907,
      "semi_major_axis_km": 6861.199732387823,
      "eccentricity": 0.0001179,
      "inclination_deg": 43.0017,
      "raan_deg": 237.9885,
      "arg_perigee_deg": 258.9923,
      "mean_anomaly_deg": 101.0796,
      "mean_motion_rev_day": 15.27575446
    },
    {
      "epoch": "2026-04-15T15:08:55.194432Z",
      "apogee_km": 483.91599044075065,
      "perigee_km": 482.20755194672347,
      "latitude_deg": 2.6101859554834263e-06,
      "longitude_deg": 161.79843655080188,
      "height_km": 482.9386541970642,
      "semi_major_axis_km": 6861.198771193736,
      "eccentricity": 0.0001245,
      "inclination_deg": 43.002,
      "raan_deg": 232.8189,
      "arg_perigee_deg": 263.2698,
      "mean_anomaly_deg": 96.8012,
      "mean_motion_rev_day": 15.27575767
    },
    {
      "epoch": "2026-04-16T17:49:34.868352Z",
      "apogee_km": 483.83989102865326,
      "perigee_km": 482.2837711337643,
      "latitude_deg": 2.0541012462241958e-05,
      "longitude_deg": 114.26113613231854,
      "height_km": 482.8213231253981,
      "semi_major_axis_km": 6861.1988310812085,
      "eccentricity": 0.0001134,
      "inclination_deg": 43.0016,
      "raan_deg": 226.5425,
      "arg_perigee_deg": 271.264,
      "mean_anomaly_deg": 88.8082,
      "mean_motion_rev_day": 15.27575747
    },
    {
      "epoch": "2026-04-17T14:13:37.900992Z",
      "apogee_km": 484.3140956814359,
      "perigee_km": 481.8127764504634,
      "latitude_deg": 3.3599109432414954e-05,
      "longitude_deg": 162.611282402901,
      "height_km": 482.6771708979413,
      "semi_major_axis_km": 6861.200436065949,
      "eccentricity": 0.00018228,
      "inclination_deg": 43.002,
      "raan_deg": 221.7431,
      "arg_perigee_deg": 277.5135,
      "mean_anomaly_deg": 82.551,
      "mean_motion_rev_day": 15.27575211
    },
    {
      "epoch": "2026-04-18T15:20:06.506016Z",
      "apogee_km": 483.5328586440928,
      "perigee_km": 482.51603451770916,
      "latitude_deg": 3.942098118057978e-05,
      "longitude_deg": 139.05095478346513,
      "height_km": 482.8664035969779,
      "semi_major_axis_km": 6861.161446580901,
      "eccentricity": 7.41e-05,
      "inclination_deg": 43.0008,
      "raan_deg": 215.8331,
      "arg_perigee_deg": 262.5681,
      "mean_anomaly_deg": 97.5087,
      "mean_motion_rev_day": 15.27588232
    },
    {
      "epoch": "2026-04-19T14:52:27.975072Z",
      "apogee_km": 483.6645034013982,
      "perigee_km": 482.5365159548073,
      "latitude_deg": 4.005494473482229e-06,
      "longitude_deg": 139.4542372587902,
      "height_km": 483.42040942152954,
      "semi_major_axis_km": 6861.2375096781025,
      "eccentricity": 8.22e-05,
      "inclination_deg": 42.9984,
      "raan_deg": 210.2926,
      "arg_perigee_deg": 165.0743,
      "mean_anomaly_deg": 195.0133,
      "mean_motion_rev_day": 15.2756283
    },
    {
      "epoch": "2026-04-20T12:50:39.278976Z",
      "apogee_km": 484.26785570984885,
      "perigee_km": 481.7990693540205,
      "latitude_deg": -3.101001600312887e-05,
      "longitude_deg": 163.83643076124736,
      "height_km": 482.928220548303,
      "semi_major_axis_km": 6861.170462531934,
      "eccentricity": 0.00017991,
      "inclination_deg": 43.0038,
      "raan_deg": 205.1242,
      "arg_perigee_deg": 264.5456,
      "mean_anomaly_deg": 95.519,
      "mean_motion_rev_day": 15.27585221
    },
    {
      "epoch": "2026-04-21T17:05:27.038400Z",
      "apogee_km": 483.45739158520155,
      "perigee_km": 482.6258167383776,
      "latitude_deg": 6.023402768008937e-05,
      "longitude_deg": 92.33098093420551,
      "height_km": 483.02137959332936,
      "semi_major_axis_km": 6861.178604161789,
      "eccentricity": 6.06e-05,
      "inclination_deg": 43.0008,
      "raan_deg": 198.4777,
      "arg_perigee_deg": 240.6501,
      "mean_anomaly_deg": 119.4291,
      "mean_motion_rev_day": 15.27582502
    },
    {
      "epoch": "2026-04-22T16:37:49.971072Z",
      "apogee_km": 484.2582199080689,
      "perigee_km": 481.9679346322764,
      "latitude_deg": 2.3854576681609257e-05,
      "longitude_deg": 92.7251456325993,
      "height_km": 484.0223749970498,
      "semi_major_axis_km": 6861.250077270172,
      "eccentricity": 0.0001669,
      "inclination_deg": 42.997,
      "raan_deg": 192.9342,
      "arg_perigee_deg": 172.2265,
      "mean_anomaly_deg": 187.8613,
      "mean_motion_rev_day": 15.27558633
    },
    {
      "epoch": "2026-04-23T11:27:41.546016Z",
      "apogee_km": 483.82095779367774,
      "perigee_km": 482.2505725711826,
      "latitude_deg": -3.492453848998787e-05,
      "longitude_deg": 165.0604243502289,
      "height_km": 482.80227989353904,
      "semi_major_axis_km": 6861.17276518243,
      "eccentricity": 0.00011444,
      "inclination_deg": 43.0026,
      "raan_deg": 188.5078,
      "arg_perigee_deg": 270.7491,
      "mean_anomaly_deg": 89.3229,
      "mean_motion_rev_day": 15.27584452
    },
    {
      "epoch": "2026-04-24T11:00:01.988640Z",
      "apogee_km": 483.773737227747,
      "perigee_km": 482.2958408243894,
      "latitude_deg": -4.469070490978289e-05,
      "longitude_deg": 165.4684221282955,
      "height_km": 482.87252295034097,
      "semi_major_axis_km": 6861.171789026068,
      "eccentricity": 0.0001077,
      "inclination_deg": 43.0022,
      "raan_deg": 182.9677,
      "arg_perigee_deg": 265.2595,
      "mean_anomaly_deg": 94.8133,
      "mean_motion_rev_day": 15.27584778
    },
    {
      "epoch": "2026-04-25T10:32:22.517664Z",
      "apogee_km": 483.75466642547417,
      "perigee_km": 482.30421583981934,
      "latitude_deg": 1.8246428123493093e-05,
      "longitude_deg": 165.87443727871363,
      "height_km": 483.0682276932293,
      "semi_major_axis_km": 6861.1664411326465,
      "eccentricity": 0.0001057,
      "inclination_deg": 42.9995,
      "raan_deg": 177.4259,
      "arg_perigee_deg": 248.7766,
      "mean_anomaly_deg": 111.2973,
      "mean_motion_rev_day": 15.27586564
    },
    {
      "epoch": "2026-04-26T14:47:12.305760Z",
      "apogee_km": 483.84009420046095,
      "perigee_km": 482.2821905502542,
      "latitude_deg": 8.462195768964438e-06,
      "longitude_deg": 94.36380697497651,
      "height_km": 483.0121082646427,
      "semi_major_axis_km": 6861.198142375358,
      "eccentricity": 0.00011353,
      "inclination_deg": 43.0031,
      "raan_deg": 170.7828,
      "arg_perigee_deg": 257.078,
      "mean_anomaly_deg": 102.9945,
      "mean_motion_rev_day": 15.27575977
    },
    {
      "epoch": "2026-04-27T09:37:04.740384Z",
      "apogee_km": 483.94922579449667,
      "perigee_km": 482.1529667508912,
      "latitude_deg": 1.3576931010114356e-05,
      "longitude_deg": 166.6908641600758,
      "height_km": 482.93799011510146,
      "semi_major_axis_km": 6861.188096272694,
      "eccentricity": 0.0001309,
      "inclination_deg": 43.0037,
      "raan_deg": 166.3517,
      "arg_perigee_deg": 262.9726,
      "mean_anomaly_deg": 97.0977,
      "mean_motion_rev_day": 15.27579332
    },
    {
      "epoch": "2026-04-28T09:09:27.099360Z",
      "apogee_km": 484.29248042765266,
      "perigee_km": 482.0104158897957,
      "latitude_deg": 3.964156000697756e-05,
      "longitude_deg": 167.08879559008508,
      "height_km": 483.26160224612147,
      "semi_major_axis_km": 6861.288448158723,
      "eccentricity": 0.0001663,
      "inclination_deg": 43.0027,
      "raan_deg": 160.8095,
      "arg_perigee_deg": 253.0295,
      "mean_anomaly_deg": 107.0375,
      "mean_motion_rev_day": 15.27545819
    },
    {
      "epoch": "2026-04-29T19:40:54.079104Z",
      "apogee_km": 485.0175779149249,
      "perigee_km": 481.16705602224283,
      "latitude_deg": 8.777461715263615e-06,
      "longitude_deg": -0.3139091871602667,
      "height_km": 482.35232222849754,
      "semi_major_axis_km": 6861.229316968584,
      "eccentricity": 0.0002806,
      "inclination_deg": 43.0035,
      "raan_deg": 152.6871,
      "arg_perigee_deg": 285.6118,
      "mean_anomaly_deg": 74.4424,
      "mean_motion_rev_day": 15.27565566
    },
    {
      "epoch": "2026-04-30T08:14:08.706912Z",
      "apogee_km": 484.7998170802366,
      "perigee_km": 481.2819539547736,
      "latitude_deg": 1.4264773708811596e-05,
      "longitude_deg": 167.90717029018754,
      "height_km": 482.2463056080655,
      "semi_major_axis_km": 6861.177885517504,
      "eccentricity": 0.00025636,
      "inclination_deg": 43.0041,
      "raan_deg": 149.7347,
      "arg_perigee_deg": 288.998,
      "mean_anomaly_deg": 71.0594,
      "mean_motion_rev_day": 15.27582742
    },
    {
      "epoch": "2026-05-02T02:36:20.842848Z",
      "apogee_km": 483.69069968783606,
      "perigee_km": 482.3527737341774,
      "latitude_deg": 6.354374714173953e-06,
      "longitude_deg": -119.35788205630756,
      "height_km": 483.43854697599767,
      "semi_major_axis_km": 6861.158736711006,
      "eccentricity": 9.75e-05,
      "inclination_deg": 42.9996,
      "raan_deg": 139.7603,
      "arg_perigee_deg": 196.5463,
      "mean_anomaly_deg": 163.5357,
      "mean_motion_rev_day": 15.27589137
    }
  ]
}